CAS-2T & KS-1Q          
1 41847U 16066G   21167.77922721  .00000118  00000-0  28640-4 0  9991
2 41847  98.6010 226.9079 0364453 222.2705 134.9861 14.38196433241786
NAYIF-1 (EO-88)         
1 42017U 17008BX  21167.70978313  .00002696  00000-0  10075-3 0  9994
2 42017  97.3153 235.3227 0007724 108.0619 252.1463 15.28193713241148
ZHUHAI-1 02 (CAS-4B)    
1 42759U 17034B   21167.78040912  .00000384  00000-0  36376-4 0  9994
2 42759  43.0164 184.7830 0007821 167.8852   1.0756 15.10229523221041
ZHUHAI-1 01 (CAS-4A)    
1 42761U 17034D   21167.88448027  .00000355  00000-0  34585-4 0  9995
2 42761  43.0161 183.2651 0008293 170.0601 254.3082 15.10316335221063
MAX VALIER SAT          
1 42778U 17036P   21167.71282511  .00001493  00000-0  65116-4 0  9999
2 42778  97.2547 216.3481 0012138 170.3774 189.7698 15.23616642221170
RADFXSAT (FOX-1B)       
1 43017U 17073E   21167.72460107  .00000670  00000-0  57561-4 0  9998
2 43017  97.7071  71.7405 0253656 303.0001  54.7063 14.79566915193018
FOX-1D (AO-92)          
1 43137U 18004AC  21167.74238207  .00001654  00000-0  68616-4 0  9998
2 43137  97.4065 241.7808 0008055 203.5270 156.5601 15.25265092190559
DIWATA-2B               
1 43678U 18084H   21167.84986529  .00000447  00000-0  50060-4 0  9997
2 43678  97.9241 293.1255 0011139  57.9346 302.2963 14.91757471143344
ES'HAIL 2               
1 43700U 18090A   21167.89424331  .00000152  00000-0  00000-0 0  9991
2 43700   0.0158 321.8279 0001175 145.3461 145.9629  1.00274262  9368
FOX-1CLIFF (AO-95)      
1 43770U 18099N   21167.71388136  .00000125  00000-0  16475-4 0  9997
2 43770  97.6647 237.9174 0015788  63.3539 296.9296 14.95328090138346
ITASAT 1                
1 43786U 18099AE  21167.76704502  .00000052  00000-0  97619-5 0  9997
2 43786  97.6669 238.6469 0016452  56.6123 303.6669 14.95624259138385
JY1SAT (JO-97)          
1 43803U 18099AX  21167.46346014  .00000612  00000-0  59754-4 0  9993
2 43803  97.6627 238.1016 0016247  57.9737 302.3060 14.95867558138347
UWE-4                   
1 43880U 18111E   21167.64827315  .00000009  00000-0  58194-5 0  9999
2 43880  97.6876  75.3956 0013683 103.8025 256.4721 14.96876661134967
PSAT2 (NO-104)          
1 44354U 19036R   21167.24993866  .00012111  00000-0  15787-3 0  9990
2 44354  28.5297 135.0684 0325511 262.9684  93.3788 15.13467497108796
BRICSAT2 (NO-103)       
1 44355U 19036S   21167.16589705  .00038552  00000-0  42331-3 0  9997
2 44355  28.5264  90.8050 0263785 335.1237  23.6845 15.29494803109235
JAISAT-1                
1 44419U 19038F   21167.84498301  .00001463  00000-0  84514-4 0  9997
2 44419  97.5883 132.5477 0019914 318.3955  41.5760 15.13774048107709
DUCHIFAT-3              
1 44854U 19089C   21167.19515025  .00000554  00000-0  50680-4 0  9994
2 44854  36.9646 108.0745 0006950 132.5411 227.5929 14.99502933 82914
RS-44 & BREEZE-KM R/B   
1 44909U 19096E   21167.84587866  .00000037  00000-0  96633-4 0  9991
2 44909  82.5207 113.2167 0218560  94.4654 268.1449 12.79710220 68747
ORBITAL FACTORY 2 (OF-2)
1 45113U 19071C   21167.81975012  .00002330  00000-0  76790-4 0  9993
2 45113  51.6431  40.5851 0011172 292.5865  67.3935 15.35774602 77072
HUSKYSAT-1 (HO-107)     
1 45119U 19071J   21167.83116817  .00002634  00000-0  85315-4 0  9991
2 45119  51.6428  39.9069 0010585 289.0288  70.9548 15.35801148 77070
BY70-2                  
1 45857U 20042B   21167.83214561  .00001358  00000-0  19969-3 0  9998
2 45857  97.9840 243.5853 0010423 206.6952 153.3717 14.77032597 51455
SALSAT                  
1 46495U 20068K   21167.92859462 -.00000329  00000-0 -19559-4 0  9995
2 46495  97.6950 105.4276 0018848  73.8765 286.4529 15.03455700 39251
BY70-3                  
1 46839U 20079N   21167.86079318  .00003617  00000-0  11339-3 0  9994
2 46839  97.2400 241.7284 0006447 195.4526 256.9382 15.33686008 34119
RADFXSAT-2 (AO-109)     
1 47311U 21002C   21167.63526027  .00001276  00000-0  67226-4 0  9992
2 47311  60.6848 294.2581 0036672  47.7138 312.7047 15.21654908 22745
UVSQ-SAT                
1 47438U 21006AB  21167.72033820  .00001108  00000-0  66047-4 0  9994
2 47438  97.4872 228.9573 0014457 100.0089 260.2774 15.13141679 21942
DIY-1 (ARDUIQUBE)       
1 47963U 21022AH  21167.69781130  .00001812  00000-0  12396-3 0  9994
2 47963  97.5580  70.0448 0018476 312.0495  47.9160 15.07250042 11788
